STARLINK-36981          
1 68148U 26049G   26094.23512156  .00189190  00000+0  96094-3 0  9992
2 68148  97.2858 114.8034 0001225  84.7844 275.3565 15.80957795  3444
STARLINK-36992          
1 68149U 26049H   26094.23437003  .00191320  00000+0  97073-3 0  9996
2 68149  97.2857 114.8042 0000974  76.5916 283.5461 15.80975500  3442
STARLINK-37060          
1 68150U 26049J   26094.23361865  .00184507  00000+0  93719-3 0  9992
2 68150  97.2857 114.8052 0001300  91.2664 268.8753 15.80969218  3442
STARLINK-37073          
1 68151U 26049K   26094.25002315 -.00206783  00000+0 -14138-2 0  9997
2 68151  97.2849 114.7968 0001629 131.1135 261.4080 15.75278254  4732
STARLINK-37049          
1 68152U 26049L   26094.25002315 -.00038553  00000+0 -25898-3 0  9992
2 68152  97.2849 114.8154 0000834 105.4041 333.1206 15.75172706  4730
STARLINK-37072          
1 68153U 26049M   26094.24783324  .00136415  00000+0  89692-3 0  9994
2 68153  97.2851 114.7861 0001469 107.2678 252.8748 15.75292843  3449
STARLINK-36241          
1 68154U 26049N   26094.19631077  .00202265  00000+0  13180-2 0  9991
2 68154  97.2844 114.7019 0001385  94.0802 266.0621 15.75314474  3437
STARLINK-37048          
1 68155U 26049P   26094.22835845  .00278544  00000+0  13959-2 0  9992
2 68155  97.2853 114.8119 0001472  74.5439 285.5992 15.81021345  3443
STARLINK-36313          
1 68156U 26049Q   26094.22910952  .00255451  00000+0  12844-2 0  9990
2 68156  97.2854 114.8105 0001492  71.1869 288.9561 15.81007319  3446
STARLINK-37064          
1 68157U 26049R   26094.23061225  .00260048  00000+0  13069-2 0  9990
2 68157  97.2854 114.8086 0000800  70.2859 289.8496 15.81005292  3441
STARLINK-37069          
1 68158U 26049S   26094.19277832  .00158326  00000+0  10384-2 0  9991
2 68158  97.2847 114.7070 0001658 114.4957 245.6481 15.75286983  3432
STARLINK-37053          
1 68159U 26049T   26094.25002315 -.00038525  00000+0 -25852-3 0  9998
2 68159  97.2852 114.8319 0001141  87.0424  27.4644 15.75196260  4736
